<?xml version="1.0" encoding="UTF-8"?>
<ndm xmlns:xsi="http://www.w3.org/2001/XMLSchema-instance" xsi:noNamespaceSchemaLocation="https://sanaregistry.org/r/ndmxml_unqualified/ndmxml-2.0.0-master-2.0.xsd">
<omm id="CCSDS_OMM_VERS" version="2.0">
<header><CREATION_DATE/><ORIGINATOR/></header><body><segment><metadata><OBJECT_NAME>ORBCOMM FM37 [-]</OBJECT_NAME><OBJECT_ID>2008-031E</OBJECT_ID><CENTER_NAME>EARTH</CENTER_NAME><REF_FRAME>TEME</REF_FRAME><TIME_SYSTEM>UTC</TIME_SYSTEM><MEAN_ELEMENT_THEORY>SGP4</MEAN_ELEMENT_THEORY></metadata><data><meanElements><EPOCH>2024-02-02T14:22:59.913120</EPOCH><MEAN_MOTION>14.75816658</MEAN_MOTION><ECCENTRICITY>.0005176</ECCENTRICITY><INCLINATION>48.4386</INCLINATION><RA_OF_ASC_NODE>195.9263</RA_OF_ASC_NODE><ARG_OF_PERICENTER>30.0656</ARG_OF_PERICENTER><MEAN_ANOMALY>84.7162</MEAN_ANOMALY></meanElements><tleParameters><EPHEMERIS_TYPE>0</EPHEMERIS_TYPE><CLASSIFICATION_TYPE>U</CLASSIFICATION_TYPE><NORAD_CAT_ID>33064</NORAD_CAT_ID><ELEMENT_SET_NO>999</ELEMENT_SET_NO><REV_AT_EPOCH>84001</REV_AT_EPOCH><BSTAR>.33112E-3</BSTAR><MEAN_MOTION_DOT>.2089E-4</MEAN_MOTION_DOT><MEAN_MOTION_DDOT>0</MEAN_MOTION_DDOT></tleParameters></data></segment></body></omm>
<omm id="CCSDS_OMM_VERS" version="2.0">
<header><CREATION_DATE/><ORIGINATOR/></header><body><segment><metadata><OBJECT_NAME>ORBCOMM FM40 [-]</OBJECT_NAME><OBJECT_ID>2008-031F</OBJECT_ID><CENTER_NAME>EARTH</CENTER_NAME><REF_FRAME>TEME</REF_FRAME><TIME_SYSTEM>UTC</TIME_SYSTEM><MEAN_ELEMENT_THEORY>SGP4</MEAN_ELEMENT_THEORY></metadata><data><meanElements><EPOCH>2024-02-02T13:03:37.039680</EPOCH><MEAN_MOTION>14.77010475</MEAN_MOTION><ECCENTRICITY>.0006472</ECCENTRICITY><INCLINATION>48.4412</INCLINATION><RA_OF_ASC_NODE>186.4613</RA_OF_ASC_NODE><ARG_OF_PERICENTER>38.6372</ARG_OF_PERICENTER><MEAN_ANOMALY>77.6186</MEAN_ANOMALY></meanElements><tleParameters><EPHEMERIS_TYPE>0</EPHEMERIS_TYPE><CLASSIFICATION_TYPE>U</CLASSIFICATION_TYPE><NORAD_CAT_ID>33065</NORAD_CAT_ID><ELEMENT_SET_NO>999</ELEMENT_SET_NO><REV_AT_EPOCH>84003</REV_AT_EPOCH><BSTAR>.39364E-3</BSTAR><MEAN_MOTION_DOT>.2598E-4</MEAN_MOTION_DOT><MEAN_MOTION_DDOT>0</MEAN_MOTION_DDOT></tleParameters></data></segment></body></omm>
<omm id="CCSDS_OMM_VERS" version="2.0">
<header><CREATION_DATE/><ORIGINATOR/></header><body><segment><metadata><OBJECT_NAME>VESSELSAT 1 [-]</OBJECT_NAME><OBJECT_ID>2011-058C</OBJECT_ID><CENTER_NAME>EARTH</CENTER_NAME><REF_FRAME>TEME</REF_FRAME><TIME_SYSTEM>UTC</TIME_SYSTEM><MEAN_ELEMENT_THEORY>SGP4</MEAN_ELEMENT_THEORY></metadata><data><meanElements><EPOCH>2024-02-02T18:38:59.241120</EPOCH><MEAN_MOTION>14.11109585</MEAN_MOTION><ECCENTRICITY>.0013839</ECCENTRICITY><INCLINATION>19.9607</INCLINATION><RA_OF_ASC_NODE>241.2797</RA_OF_ASC_NODE><ARG_OF_PERICENTER>82.9188</ARG_OF_PERICENTER><MEAN_ANOMALY>277.2789</MEAN_ANOMALY></meanElements><tleParameters><EPHEMERIS_TYPE>0</EPHEMERIS_TYPE><CLASSIFICATION_TYPE>U</CLASSIFICATION_TYPE><NORAD_CAT_ID>37840</NORAD_CAT_ID><ELEMENT_SET_NO>999</ELEMENT_SET_NO><REV_AT_EPOCH>63576</REV_AT_EPOCH><BSTAR>.79813E-4</BSTAR><MEAN_MOTION_DOT>.411E-5</MEAN_MOTION_DOT><MEAN_MOTION_DDOT>0</MEAN_MOTION_DDOT></tleParameters></data></segment></body></omm>
<omm id="CCSDS_OMM_VERS" version="2.0">
<header><CREATION_DATE/><ORIGINATOR/></header><body><segment><metadata><OBJECT_NAME>ORBCOMM FM109 [+]</OBJECT_NAME><OBJECT_ID>2014-040A</OBJECT_ID><CENTER_NAME>EARTH</CENTER_NAME><REF_FRAME>TEME</REF_FRAME><TIME_SYSTEM>UTC</TIME_SYSTEM><MEAN_ELEMENT_THEORY>SGP4</MEAN_ELEMENT_THEORY></metadata><data><meanElements><EPOCH>2024-02-02T13:02:25.763136</EPOCH><MEAN_MOTION>14.56304413</MEAN_MOTION><ECCENTRICITY>.0002316</ECCENTRICITY><INCLINATION>47.0020</INCLINATION><RA_OF_ASC_NODE>217.2671</RA_OF_ASC_NODE><ARG_OF_PERICENTER>187.2537</ARG_OF_PERICENTER><MEAN_ANOMALY>172.8315</MEAN_ANOMALY></meanElements><tleParameters><EPHEMERIS_TYPE>0</EPHEMERIS_TYPE><CLASSIFICATION_TYPE>U</CLASSIFICATION_TYPE><NORAD_CAT_ID>40086</NORAD_CAT_ID><ELEMENT_SET_NO>999</ELEMENT_SET_NO><REV_AT_EPOCH>50804</REV_AT_EPOCH><BSTAR>.26042E-3</BSTAR><MEAN_MOTION_DOT>.997E-5</MEAN_MOTION_DOT><MEAN_MOTION_DDOT>0</MEAN_MOTION_DDOT></tleParameters></data></segment></body></omm>
<omm id="CCSDS_OMM_VERS" version="2.0">
<header><CREATION_DATE/><ORIGINATOR/></header><body><segment><metadata><OBJECT_NAME>ORBCOMM FM107 [+]</OBJECT_NAME><OBJECT_ID>2014-040B</OBJECT_ID><CENTER_NAME>EARTH</CENTER_NAME><REF_FRAME>TEME</REF_FRAME><TIME_SYSTEM>UTC</TIME_SYSTEM><MEAN_ELEMENT_THEORY>SGP4</MEAN_ELEMENT_THEORY></metadata><data><meanElements><EPOCH>2024-02-02T12:13:10.261920</EPOCH><MEAN_MOTION>14.56267089</MEAN_MOTION><ECCENTRICITY>.0001304</ECCENTRICITY><INCLINATION>47.0036</INCLINATION><RA_OF_ASC_NODE>218.3811</RA_OF_ASC_NODE><ARG_OF_PERICENTER>157.8535</ARG_OF_PERICENTER><MEAN_ANOMALY>202.2406</MEAN_ANOMALY></meanElements><tleParameters><EPHEMERIS_TYPE>0</EPHEMERIS_TYPE><CLASSIFICATION_TYPE>U</CLASSIFICATION_TYPE><NORAD_CAT_ID>40087</NORAD_CAT_ID><ELEMENT_SET_NO>999</ELEMENT_SET_NO><REV_AT_EPOCH>50811</REV_AT_EPOCH><BSTAR>.24585E-3</BSTAR><MEAN_MOTION_DOT>.931E-5</MEAN_MOTION_DOT><MEAN_MOTION_DDOT>0</MEAN_MOTION_DDOT></tleParameters></data></segment></body></omm>
<omm id="CCSDS_OMM_VERS" version="2.0">
<header><CREATION_DATE/><ORIGINATOR/></header><body><segment><metadata><OBJECT_NAME>ORBCOMM FM106 [-]</OBJECT_NAME><OBJECT_ID>2014-040C</OBJECT_ID><CENTER_NAME>EARTH</CENTER_NAME><REF_FRAME>TEME</REF_FRAME><TIME_SYSTEM>UTC</TIME_SYSTEM><MEAN_ELEMENT_THEORY>SGP4</MEAN_ELEMENT_THEORY></metadata><data><meanElements><EPOCH>2024-02-02T12:17:09.199392</EPOCH><MEAN_MOTION>14.66540653</MEAN_MOTION><ECCENTRICITY>.0019063</ECCENTRICITY><INCLINATION>47.0604</INCLINATION><RA_OF_ASC_NODE>78.6994</RA_OF_ASC_NODE><ARG_OF_PERICENTER>265.4182</ARG_OF_PERICENTER><MEAN_ANOMALY>94.4530</MEAN_ANOMALY></meanElements><tleParameters><EPHEMERIS_TYPE>0</EPHEMERIS_TYPE><CLASSIFICATION_TYPE>U</CLASSIFICATION_TYPE><NORAD_CAT_ID>40088</NORAD_CAT_ID><ELEMENT_SET_NO>999</ELEMENT_SET_NO><REV_AT_EPOCH>51012</REV_AT_EPOCH><BSTAR>.27032E-3</BSTAR><MEAN_MOTION_DOT>.1333E-4</MEAN_MOTION_DOT><MEAN_MOTION_DDOT>0</MEAN_MOTION_DDOT></tleParameters></data></segment></body></omm>
<omm id="CCSDS_OMM_VERS" version="2.0">
<header><CREATION_DATE/><ORIGINATOR/></header><body><segment><metadata><OBJECT_NAME>ORBCOMM FM111 [-]</OBJECT_NAME><OBJECT_ID>2014-040D</OBJECT_ID><CENTER_NAME>EARTH</CENTER_NAME><REF_FRAME>TEME</REF_FRAME><TIME_SYSTEM>UTC</TIME_SYSTEM><MEAN_ELEMENT_THEORY>SGP4</MEAN_ELEMENT_THEORY></metadata><data><meanElements><EPOCH>2024-02-01T22:56:49.090272</EPOCH><MEAN_MOTION>14.80959754</MEAN_MOTION><ECCENTRICITY>.0034004</ECCENTRICITY><INCLINATION>47.0063</INCLINATION><RA_OF_ASC_NODE>353.8838</RA_OF_ASC_NODE><ARG_OF_PERICENTER>321.5711</ARG_OF_PERICENTER><MEAN_ANOMALY>38.2763</MEAN_ANOMALY></meanElements><tleParameters><EPHEMERIS_TYPE>0</EPHEMERIS_TYPE><CLASSIFICATION_TYPE>U</CLASSIFICATION_TYPE><NORAD_CAT_ID>40089</NORAD_CAT_ID><ELEMENT_SET_NO>999</ELEMENT_SET_NO><REV_AT_EPOCH>51580</REV_AT_EPOCH><BSTAR>.43927E-3</BSTAR><MEAN_MOTION_DOT>.3261E-4</MEAN_MOTION_DOT><MEAN_MOTION_DDOT>0</MEAN_MOTION_DDOT></tleParameters></data></segment></body></omm>
<omm id="CCSDS_OMM_VERS" version="2.0">
<header><CREATION_DATE/><ORIGINATOR/></header><body><segment><metadata><OBJECT_NAME>ORBCOMM FM104 [-]</OBJECT_NAME><OBJECT_ID>2014-040E</OBJECT_ID><CENTER_NAME>EARTH</CENTER_NAME><REF_FRAME>TEME</REF_FRAME><TIME_SYSTEM>UTC</TIME_SYSTEM><MEAN_ELEMENT_THEORY>SGP4</MEAN_ELEMENT_THEORY></metadata><data><meanElements><EPOCH>2024-02-02T17:25:07.294368</EPOCH><MEAN_MOTION>14.54827020</MEAN_MOTION><ECCENTRICITY>.0016674</ECCENTRICITY><INCLINATION>47.0038</INCLINATION><RA_OF_ASC_NODE>245.2089</RA_OF_ASC_NODE><ARG_OF_PERICENTER>80.2533</ARG_OF_PERICENTER><MEAN_ANOMALY>280.0234</MEAN_ANOMALY></meanElements><tleParameters><EPHEMERIS_TYPE>0</EPHEMERIS_TYPE><CLASSIFICATION_TYPE>U</CLASSIFICATION_TYPE><NORAD_CAT_ID>40090</NORAD_CAT_ID><ELEMENT_SET_NO>999</ELEMENT_SET_NO><REV_AT_EPOCH>50780</REV_AT_EPOCH><BSTAR>.20766E-3</BSTAR><MEAN_MOTION_DOT>.732E-5</MEAN_MOTION_DOT><MEAN_MOTION_DDOT>0</MEAN_MOTION_DDOT></tleParameters></data></segment></body></omm>

</ndm>
