ORBCOMM FM37 [-]        
1 33064U 08031E   24033.59930455  .00002089  00000+0  33112-3 0  9991
2 33064  48.4386 195.9263 0005176  30.0656  84.7162 14.75816658840017
ORBCOMM FM40 [-]        
1 33065U 08031F   24033.54417870  .00002598  00000+0  39364-3 0  9998
2 33065  48.4412 186.4613 0006472  38.6372  77.6186 14.77010475840035
VESSELSAT 1 [-]         
1 37840U 11058C   24033.77707455  .00000411  00000+0  79813-4 0  9998
2 37840  19.9607 241.2797 0013839  82.9188 277.2789 14.11109585635762
ORBCOMM FM109 [+]       
1 40086U 14040A   24033.54335374  .00000997  00000+0  26042-3 0  9994
2 40086  47.0020 217.2671 0002316 187.2537 172.8315 14.56304413508049
ORBCOMM FM107 [+]       
1 40087U 14040B   24033.50914655  .00000931  00000+0  24585-3 0  9994
2 40087  47.0036 218.3811 0001304 157.8535 202.2406 14.56267089508116
ORBCOMM FM106 [-]       
1 40088U 14040C   24033.51191203  .00001333  00000+0  27032-3 0  9999
2 40088  47.0604  78.6994 0019063 265.4182  94.4530 14.66540653510127
ORBCOMM FM111 [-]       
1 40089U 14040D   24032.95612373  .00003261  00000+0  43927-3 0  9996
2 40089  47.0063 353.8838 0034004 321.5711  38.2763 14.80959754515802
ORBCOMM FM104 [-]       
1 40090U 14040E   24033.72577887  .00000732  00000+0  20766-3 0  9990
2 40090  47.0038 245.2089 0016674  80.2533 280.0234 14.54827020507804
